satname,norad_id,inclination_deg,eccentricity,mean_motion_rev_per_day,perigee_km,apogee_km,l1,l2
STARLINK-1234,45190,53.0341,0.0001769,15.80021176,329.1939577260264,331.5674312863439,1 45190U 20012N   26171.50003471  .00825968  00000+0  39517-2 0  9995,2 45190  53.0341 177.1683 0001769  93.1200   2.5251 15.80021176  6022
STARLINK-1269,45197,53.1563,0.0001412,15.36042176,456.86145795639095,458.79193410414973,1 45197U 20012V   26170.70157336  .00035689  00000+0  10083-2 0  9993,2 45197  53.1563 284.2936 0001412 335.2146  24.8789 15.36042176350558
STARLINK-1154,45198,53.0404,0.0003618,15.64741655,371.5389415048676,376.42477471059465,1 45198U 20012W   26171.43671766  .00034576  00000+0  35315-3 0  9993,2 45198  53.0404 232.9626 0003618  20.2980 339.8178 15.64741655351286
STARLINK-1199,45201,53.1558,0.0003719,15.36110825,455.0808085990766,460.16524690771894,1 45201U 20012Z   26171.45337584  .00034580  00000+0  97517-3 0  9994,2 45201  53.1558 265.0349 0003719 329.8149  30.2639 15.36110825350919
STARLINK-1209,45206,53.0363,0.0003709,15.67738361,362.87357025408437,367.875907261895,1 45206U 20012AE  26171.50003471  .00364954  00000+0  31290-2 0  9996,2 45206  53.0363 192.6636 0003709 305.3411 359.9849 15.67738361  6019
STARLINK-1231,45212,53.04,0.0002544,15.2865549,478.08591337313464,481.575247278005,1 45212U 20012AL  26171.43197499  .00023070  00000+0  82675-3 0  9994,2 45212  53.0400 260.9180 0002544  61.4623 298.6631 15.28655490350908
STARLINK-1271,45217,53.1568,0.0003509,15.3619681,454.9693696373224,459.76652701005514,1 45217U 20012AR  26170.53856126  .00039028  00000+0  10956-2 0  9990,2 45217  53.1568 269.4304 0003509 328.5567  31.5226 15.36196810350771
STARLINK-1191,45222,53.1528,0.0003044,15.40356646,442.9789308968511,447.1328907409588,1 45222U 20012AW  26171.46115814  .00037228  00000+0  91369-3 0  9999,2 45222  53.1528 237.7400 0003044 305.7583  54.3139 15.40356646351303
STARLINK-1212,45223,53.0381,0.0001512,15.70528969,356.36578228313374,358.4026038919228,1 45223U 20012AX  26171.50003471  .00021964  00000+0  17948-3 0  9991,2 45223  53.0381 208.1269 0001512  80.4164 196.1601 15.70528969  6000
STARLINK-1215,45225,53.1556,0.0004679,15.36429544,453.4796391556074,459.87565870407616,1 45225U 20012AZ  26171.44751608  .00033341  00000+0  93110-3 0  9995,2 45225  53.1556 239.4231 0004679 335.8609  24.2174 15.36429544351236
STARLINK-1221,45227,53.0635,0.0003285,15.45183415,428.60244809609867,433.07594545737993,1 45227U 20012BB  26171.20899318  .00013321  00000+0  28469-3 0  9993,2 45227  53.0635 142.5451 0003285   6.7963 353.3087 15.45183415352540
STARLINK-1222,45228,53.0508,0.0003089,15.56161408,396.6852702936394,400.8720487881037,1 45228U 20012BC  26171.35108031  .00024307  00000+0  34696-3 0  9990,2 45228  53.0508 208.2383 0003089  41.8795 318.2451 15.56161408351576
STARLINK-1226,45229,53.154,0.000481,15.45526071,426.5581216506862,433.107388555095,1 45229U 20012BD  26171.46765322  .00042881  00000+0  88287-3 0  9997,2 45229  53.1540 234.5609 0004810 335.0852  24.9922 15.45526071351249
STARLINK-1227,45230,53.1521,0.0004689,15.45619883,426.36514955454004,432.7494052478869,1 45230U 20012BE  26171.47667931  .00041674  00000+0  85566-3 0  9993,2 45230  53.1521 234.6137 0004689 328.5768  31.4959 15.45619883351364
STARLINK-1246,45235,53.1566,0.0002458,15.36068415,456.06858747057413,459.42910895355544,1 45235U 20012BK  26170.57781935  .00040645  00000+0  11451-2 0  9997,2 45235  53.1566 284.4976 0002458 291.4363  68.6378 15.36068415350593
STARLINK-1270,45237,53.0384,0.0001705,15.68176053,362.9703425108992,365.2694521128833,1 45237U 20012BM  26171.50003471  .01173824  00000+0  93066-2 0  9994,2 45237  53.0384 209.8920 0001705  83.7716 284.9065 15.68176053  5990
STARLINK-1279,45360,53.0349,0.000196,15.80840139,326.74915590476394,329.3779865286815,1 45360U 20019A   26171.44497137  .00096800  00000+0  48914-3 0  9997,2 45360  53.0349 312.0349 0001960  50.9744 309.1451 15.80840139346792
STARLINK-1301,45361,53.0349,0.0002311,15.82796023,320.9892739656134,324.086325858133,1 45361U 20019B   26171.38695419  .00106874  00000+0  49225-3 0  9993,2 45361  53.0349 314.5384 0002311 331.8463  28.2433 15.82796023346769
STARLINK-1262,45366,53.1536,0.0004051,15.35119966,457.7938280568187,463.33454375764177,1 45366U 20019G   26170.88193360  .00036240  00000+0  10540-2 0  9996,2 45366  53.1536  49.6064 0004051 126.6239 233.5137 15.35119966345414
STARLINK-1273,45367,53.0447,0.0003618,15.58570441,389.3442557524222,394.24297754662985,1 45367U 20019H   26170.88032431  .00072429  00000+0  92689-3 0  9992,2 45367  53.0447  23.1625 0003618 104.8412 255.3001 15.58570441345768
STARLINK-1277,45369,53.0416,0.0001596,15.68427971,362.3219764543019,364.47387440249804,1 45369U 20019K   26171.50003471 -.00324409  00000+0 -29296-2 0  9999,2 45369  53.0416  13.4922 0001596  86.8034  33.4725 15.68427971  5996
STARLINK-1281,45370,53.156,0.0004422,15.35922832,455.15778292770483,461.20382239237733,1 45370U 20019L   26170.95179595  .00035753  00000+0  10137-2 0  9993,2 45370  53.1560  48.8370 0004422 111.0722 249.0755 15.35922832345438
STARLINK-1300,45374,53.1581,0.0004169,15.36524708,453.5461218969085,459.24475504410657,1 45374U 20019Q   26171.34992308  .00027986  00000+0  78149-3 0  9993,2 45374  53.1581  46.8299 0004169 124.0100 236.1300 15.36524708345495
STARLINK-1302,45375,53.0455,0.000396,15.68514369,360.4808120815269,365.81991167213346,1 45375U 20019R   26170.94263099  .00046464  00000+0  40551-3 0  9995,2 45375  53.0455  12.0734 0003960 104.5567 255.5888 15.68514369345923
STARLINK-1304,45376,53.0412,0.0003188,15.64600149,372.236264694503,376.54167525295816,1 45376U 20019S   26170.84885078  .00039955  00000+0  40926-3 0  9995,2 45376  53.0412  14.2164 0003188 128.9274 231.2025 15.64600149345882
STARLINK-1305,45377,53.0392,0.000268,15.72984831,348.5684596834326,352.17494034664105,1 45377U 20019T   26170.80062459  .00063757  00000+0  45931-3 0  9990,2 45377  53.0392 352.2332 0002680 280.4177  79.6539 15.72984831346195
STARLINK-1319,45379,53.0368,0.0001146,15.79723794,330.4536916126335,331.99147682933653,1 45379U 20019V   26171.48128330  .00084762  00000+0  45183-3 0  9996,2 45379  53.0368 339.9759 0001146  99.0091 261.1059 15.79723794346427
STARLINK-1266,45383,53.0464,6.33e-05,15.66950859,367.2069319643206,368.06094656523237,1 45383U 20019Z   26170.78130770  .00042828  00000+0  39896-3 0  9995,2 45383  53.0464 359.2756 0000633 262.3641  97.7303 15.66950859346084
STARLINK-1267,45384,53.043,0.0001876,15.67464354,364.8953703505349,367.4258308102726,1 45384U 20019AA  26171.50003471  .00370233  00000+0  32078-2 0  9992,2 45384  53.0430 347.0007 0001876 127.0017 130.5839 15.67464354  6002
STARLINK-1272,45386,53.0393,0.0004789,15.71214017,352.2015596020492,358.65096649539737,1 45386U 20019AC  26170.86628083  .00057563  00000+0  44751-3 0  9994,2 45386  53.0393 328.4884 0004789 128.5329 231.6118 15.71214017346527
STARLINK-1274,45387,53.02,0.0005598,15.64205127,371.74507018284567,379.30647102081093,1 45387U 20019AD  26171.46227044  .00083462  00000+0  85721-3 0  9993,2 45387  53.0200 325.4177 0005598 207.4015 152.6704 15.64205127346612
STARLINK-1280,45388,53.0348,0.0001769,15.85026966,315.06457121189396,317.4330449107865,1 45388U 20019AE  26171.00002315  .00121682  00000+0  50294-3 0  9990,2 45388  53.0348 334.2200 0001769 333.7829   9.5396 15.85026966  6001
STARLINK-1283,45389,53.0398,0.0001345,15.73132468,349.0457894972478,350.8556450932001,1 45389U 20019AF  26171.44135625  .00061908  00000+0  44346-3 0  9995,2 45389  53.0398 324.5544 0001345 232.5658 127.5237 15.73132468346639
STARLINK-1284,45390,53.0414,0.0003014,15.71365507,352.96411729063766,357.02284834568036,1 45390U 20019AG  26171.21826928  .00059982  00000+0  46319-3 0  9996,2 45390  53.0414 349.7016 0003014  65.1393 294.9937 15.71365507346258
STARLINK-1297,45395,53.0418,0.0001141,15.7163881,353.4447190602823,354.98104130293905,1 45395U 20019AM  26171.50003471  .01172240  00000+0  80581-2 0  9995,2 45395  53.0418 347.4855 0001141  95.7097 265.7790 15.71638810  6012
STARLINK-1307,45397,53.0528,0.0001187,15.57487815,394.12652304674793,395.7344492679613,1 45397U 20019AP  26170.75291851  .00031270  00000+0  42275-3 0  9999,2 45397  53.0528 358.1398 0001187 159.4614 200.6446 15.57487815345923
STARLINK-1255,45399,53.0348,0.0002931,15.66887592,365.83828425831325,369.79276162726273,1 45399U 20019AR  26170.84959093  .00045273  00000+0  42234-3 0  9993,2 45399  53.0348 324.7006 0002931 152.3152 207.8020 15.66887592346381
STARLINK-1260,45404,53.1558,0.0004293,15.39067646,445.9342544469391,451.79591843835897,1 45404U 20019AW  26170.97057623  .00043247  00000+0  11046-2 0  9997,2 45404  53.1558  11.1943 0004293 133.6285 226.5076 15.39067646345671
STARLINK-1263,45405,53.1585,0.0003015,15.36045425,455.75601638697026,459.8780966830609,1 45405U 20019AX  26171.28964138  .00034099  00000+0  96388-3 0  9999,2 45405  53.1585  11.2136 0003015 160.0199 200.0923 15.36045425345706
STARLINK-1265,45406,53.1566,0.0003555,15.39398875,445.45909975745417,450.3124019333045,1 45406U 20019AY  26171.28505693  .00033323  00000+0  84541-3 0  9994,2 45406  53.1566   9.6719 0003555 119.4022 240.7338 15.39398875345722
STARLINK-1278,45408,53.0392,0.0001645,15.7367924,347.2856717278037,349.4986998299246,1 45408U 20019BA  26171.50003471  .01375279  00000+0  85200-2 0  9990,2 45408  53.0392 346.3255 0001645  88.4925 168.0656 15.73679240  5860
STARLINK-1296,45412,53.1556,0.0003723,15.39574009,444.8269433910664,449.90921447283836,1 45412U 20019BE  26170.93365610  .00045468  00000+0  11415-2 0  9997,2 45412  53.1556  11.0029 0003723 115.9379 244.2009 15.39574009345675
STARLINK-1309,45414,53.0607,0.000155,15.72171036,351.65011715564924,353.73667457836746,1 45414U 20019BG  26171.50003471  .01219977  00000+0  81672-2 0  9998,2 45414  53.0607 340.3973 0001550  89.4379   3.7763 15.72171036  6017
